[{"OBJECT_NAME":"STARLINK-30308","OBJECT_ID":"2023-131L","EPOCH":"2026-03-09T22:00:01.999584","MEAN_MOTION":15.12979471,"ECCENTRICITY":7.615e-5,"INCLINATION":43.0002,"RA_OF_ASC_NODE":170.4619,"ARG_OF_PERICENTER":239.0117,"MEAN_ANOMALY":330.2369,"EPHEMERIS_TYPE":0,"CLASSIFICATION_TYPE":"U","NORAD_CAT_ID":57742,"ELEMENT_SET_NO":999,"REV_AT_EPOCH":578,"BSTAR":0.074115533,"MEAN_MOTION_DOT":0.01457987,"MEAN_MOTION_DDOT":0},{"OBJECT_NAME":"HUNITY","OBJECT_ID":"2025-276E","EPOCH":"2026-03-09T18:00:58.161024","MEAN_MOTION":15.21896165,"ECCENTRICITY":0.0006587,"INCLINATION":97.4154,"RA_OF_ASC_NODE":144.0054,"ARG_OF_PERICENTER":10.2177,"MEAN_ANOMALY":349.9192,"EPHEMERIS_TYPE":0,"CLASSIFICATION_TYPE":"U","NORAD_CAT_ID":66670,"ELEMENT_SET_NO":999,"REV_AT_EPOCH":1533,"BSTAR":0.001210955,"MEAN_MOTION_DOT":0.0002759,"MEAN_MOTION_DDOT":0}]
